{"type": "FeatureCollection", "features": [ {"type": "Feature", "properties": {"norad_id": 37704, "name": "FENGYUN 1C DEB", "group": "fengyun-1c-debris", "lat": 66.74102106136769, "lon": 17.173268451944224, "alt_km": 942.0104343892654, "timestamp": "2025-12-09T18:55:17.521371+00:00", "meta": {"OBJECT_NAME": "FENGYUN 1C DEB", "OBJECT_ID": "1999-025ELV", "EPOCH": "2025-11-13T18:53:12.256224", "MEAN_MOTION": 13.70394507, "ECCENTRICITY": 0.02407203, "INCLINATION": 98.3154, "RA_OF_ASC_NODE": 154.7598, "ARG_OF_PERICENTER": 256.7939, "MEAN_ANOMALY": 163.8462, "EPHEMERIS_TYPE": 0, "CLASSIFICATION_TYPE": "U", "NORAD_CAT_ID": 37704, "ELEMENT_SET_NO": 999, "REV_AT_EPOCH": 61968, "BSTAR": 0.0028357246, "MEAN_MOTION_DOT": 3.039e-05, "MEAN_MOTION_DDOT": 0}, "tle": {"line1": "1 37704U 99025ELV 25317.78694741  .00003039  00000+0  28357-2 0  9991", "line2": "2 37704  98.3154 154.7598 0240720 256.7939 163.8462 13.70394507619687"}}, "geometry": {"type": "Point", "coordinates": [17.173268451944224, 66.74102106136769]}}, {"type": "Feature", "properties": {"norad_id": 37707, "name": "FENGYUN 1C DEB", "group": "fengyun-1c-debris", "lat": 20.868345769482296, "lon": -16.825432714447626, "alt_km": 605.3700940485387, "timestamp": "2025-12-09T18:55:17.521381+00:00", "meta": {"OBJECT_NAME": "FENGYUN 1C DEB", "OBJECT_ID": "1999-025ELY", "EPOCH": "2025-12-08T06:37:50.885760", "MEAN_MOTION": 14.56393896, "ECCENTRICITY": 0.01438006, "INCLINATION": 100.2208, "RA_OF_ASC_NODE": 345.2682, "ARG_OF_PERICENTER": 38.8484, "MEAN_ANOMALY": 339.1674, "EPHEMERIS_TYPE": 0, "CLASSIFICATION_TYPE": "U", "NORAD_CAT_ID": 37707, "ELEMENT_SET_NO": 999, "REV_AT_EPOCH": 85501, "BSTAR": 0.0010287894, "MEAN_MOTION_DOT": 5.184e-05, "MEAN_MOTION_DDOT": 0}, "tle": {"line1": "1 37707U 99025ELY 25342.27628340  .00005184  00000+0  10288-2 0  9995", "line2": "2 37707 100.2208 345.2682 0143800  38.8484 339.1674 14.56393896855016"}}, "geometry": {"type": "Point", "coordinates": [-16.825432714447626, 20.868345769482296]}}, {"type": "Feature", "properties": {"norad_id": 37712, "name": "FENGYUN 1C DEB", "group": "fengyun-1c-debris", "lat": 79.54540362881282, "lon": 65.45687917701513, "alt_km": 754.6276878427152, "timestamp": "2025-12-09T18:55:17.521392+00:00", "meta": {"OBJECT_NAME": "FENGYUN 1C DEB", "OBJECT_ID": "1999-025EMD", "EPOCH": "2025-12-08T15:51:18.711936", "MEAN_MOTION": 14.36415184, "ECCENTRICITY": 0.0079393, "INCLINATION": 98.8182, "RA_OF_ASC_NODE": 121.579, "ARG_OF_PERICENTER": 5.6887, "MEAN_ANOMALY": 9.3339, "EPHEMERIS_TYPE": 0, "CLASSIFICATION_TYPE": "U", "NORAD_CAT_ID": 37712, "ELEMENT_SET_NO": 999, "REV_AT_EPOCH": 63902, "BSTAR": 0.00075147, "MEAN_MOTION_DOT": 2.236e-05, "MEAN_MOTION_DDOT": 0}, "tle": {"line1": "1 37712U 99025EMD 25342.66063324  .00002236  00000+0  75147-3 0  9990", "line2": "2 37712  98.8182 121.5790 0079393   5.6887   9.3339 14.36415184639022"}}, "geometry": {"type": "Point", "coordinates": [65.45687917701513, 79.54540362881282]}}, {"type": "Feature", "properties": {"norad_id": 37714, "name": "FENGYUN 1C DEB", "group": "fengyun-1c-debris", "lat": 24.21078869331838, "lon": 91.37725999778678, "alt_km": 770.9147522393669, "timestamp": "2025-12-09T18:55:17.521402+00:00", "meta": {"OBJECT_NAME": "FENGYUN 1C DEB", "OBJECT_ID": "1999-025EMF", "EPOCH": "2025-12-09T13:46:38.631936", "MEAN_MOTION": 14.32176518, "ECCENTRICITY": 0.00485995, "INCLINATION": 98.8929, "RA_OF_ASC_NODE": 95.1946, "ARG_OF_PERICENTER": 93.8013, "MEAN_ANOMALY": 266.8729, "EPHEMERIS_TYPE": 0, "CLASSIFICATION_TYPE": "U", "NORAD_CAT_ID": 37714, "ELEMENT_SET_NO": 999, "REV_AT_EPOCH": 57464, "BSTAR": 0.0030576559, "MEAN_MOTION_DOT": 8.305e-05, "MEAN_MOTION_DDOT": 0}, "tle": {"line1": "1 37714U 99025EMF 25343.57405824  .00008305  00000+0  30577-2 0  9998", "line2": "2 37714  98.8929  95.1946 0048599  93.8013 266.8729 14.32176518574646"}}, "geometry": {"type": "Point", "coordinates": [91.37725999778678, 24.21078869331838]}}, {"type": "Feature", "properties": {"norad_id": 37715, "name": "FENGYUN 1C DEB", "group": "fengyun-1c-debris", "lat": -39.79459400997798, "lon": 164.0880184611916, "alt_km": 930.0042054483683, "timestamp": "2025-12-09T18:55:17.521412+00:00", "meta": {"OBJECT_NAME": "FENGYUN 1C DEB", "OBJECT_ID": "1999-025EMG", "EPOCH": "2025-12-08T07:32:41.570592", "MEAN_MOTION": 13.95403358, "ECCENTRICITY": 0.01145342, "INCLINATION": 98.9562, "RA_OF_ASC_NODE": 350.2044, "ARG_OF_PERICENTER": 124.1518, "MEAN_ANOMALY": 254.1782, "EPHEMERIS_TYPE": 0, "CLASSIFICATION_TYPE": "U", "NORAD_CAT_ID": 37715, "ELEMENT_SET_NO": 999, "REV_AT_EPOCH": 57742, "BSTAR": 0.0010104518, "MEAN_MOTION_DOT": 1.405e-05, "MEAN_MOTION_DDOT": 0}, "tle": {"line1": "1 37715U 99025EMG 25342.31437003  .00001405  00000+0  10105-2 0  9993", "line2": "2 37715  98.9562 350.2044 0114534 124.1518 254.1782 13.95403358577427"}}, "geometry": {"type": "Point", "coordinates": [164.0880184611916, -39.79459400997798]}}, {"type": "Feature", "properties": {"norad_id": 37717, "name": "FENGYUN 1C DEB", "group": "fengyun-1c-debris", "lat": -49.75216174732285, "lon": -50.32268370811127, "alt_km": 632.1275956855252, "timestamp": "2025-12-09T18:55:17.521422+00:00", "meta": {"OBJECT_NAME": "FENGYUN 1C DEB", "OBJECT_ID": "1999-025EMJ", "EPOCH": "2025-11-28T15:20:52.761120", "MEAN_MOTION": 14.92855591, "ECCENTRICITY": 0.00577735, "INCLINATION": 98.7244, "RA_OF_ASC_NODE": 286.8705, "ARG_OF_PERICENTER": 147.0493, "MEAN_ANOMALY": 30.278, "EPHEMERIS_TYPE": 0, "CLASSIFICATION_TYPE": "U", "NORAD_CAT_ID": 37717, "ELEMENT_SET_NO": 999, "REV_AT_EPOCH": 89187, "BSTAR": 0.0023279704, "MEAN_MOTION_DOT": 0.00024912, "MEAN_MOTION_DDOT": 0}, "tle": {"line1": "1 37717U 99025EMJ 25332.63949955  .00024912  00000+0  23280-2 0  9999", "line2": "2 37717  98.7244 286.8705 0057773 147.0493  30.2780 14.92855591891876"}}, "geometry": {"type": "Point", "coordinates": [-50.32268370811127, -49.75216174732285]}}, {"type": "Feature", "properties": {"norad_id": 37902, "name": "FENGYUN 1C DEB", "group": "fengyun-1c-debris", "lat": -79.16881329206232, "lon": -102.5869260496524, "alt_km": 877.2863233822018, "timestamp": "2025-12-09T18:55:17.521432+00:00", "meta": {"OBJECT_NAME": "FENGYUN 1C DEB", "OBJECT_ID": "1999-025ENB", "EPOCH": "2025-12-07T14:03:14.833440", "MEAN_MOTION": 13.52640367, "ECCENTRICITY": 0.03237878, "INCLINATION": 98.6837, "RA_OF_ASC_NODE": 202.4677, "ARG_OF_PERICENTER": 320.2654, "MEAN_ANOMALY": 37.5166, "EPHEMERIS_TYPE": 0, "CLASSIFICATION_TYPE": "U", "NORAD_CAT_ID": 37902, "ELEMENT_SET_NO": 999, "REV_AT_EPOCH": 62907, "BSTAR": 0.003775391, "MEAN_MOTION_DOT": 3.447e-05, "MEAN_MOTION_DDOT": 0}, "tle": {"line1": "1 37902U 99025ENB 25341.58558835  .00003447  00000+0  37754-2 0  9993", "line2": "2 37902  98.6837 202.4677 0323787 320.2654  37.5166 13.52640367629073"}}, "geometry": {"type": "Point", "coordinates": [-102.5869260496524, -79.16881329206232]}}, {"type": "Feature", "properties": {"norad_id": 37906, "name": "FENGYUN 1C DEB", "group": "fengyun-1c-debris", "lat": -27.24739877022212, "lon": 29.601818745331837, "alt_km": 912.4610087912215, "timestamp": "2025-12-09T18:55:17.521442+00:00", "meta": {"OBJECT_NAME": "FENGYUN 1C DEB", "OBJECT_ID": "1999-025ENF", "EPOCH": "2025-12-07T09:44:32.620704", "MEAN_MOTION": 13.80775808, "ECCENTRICITY": 0.01628344, "INCLINATION": 99.6055, "RA_OF_ASC_NODE": 22.1775, "ARG_OF_PERICENTER": 42.5105, "MEAN_ANOMALY": 335.0924, "EPHEMERIS_TYPE": 0, "CLASSIFICATION_TYPE": "U", "NORAD_CAT_ID": 37906, "ELEMENT_SET_NO": 999, "REV_AT_EPOCH": 59382, "BSTAR": 0.00082732607, "MEAN_MOTION_DOT": 9.17e-06, "MEAN_MOTION_DDOT": 0}, "tle": {"line1": "1 37906U 99025ENF 25341.40593311  .00000917  00000+0  82733-3 0  9993", "line2": "2 37906  99.6055  22.1775 0162834  42.5105 335.0924 13.80775808593826"}}, "geometry": {"type": "Point", "coordinates": [29.601818745331837, -27.24739877022212]}}, {"type": "Feature", "properties": {"norad_id": 37907, "name": "FENGYUN 1C DEB", "group": "fengyun-1c-debris", "lat": -3.323937432364874, "lon": -83.8598605719548, "alt_km": 771.7529778812586, "timestamp": "2025-12-09T18:55:17.521452+00:00", "meta": {"OBJECT_NAME": "FENGYUN 1C DEB", "OBJECT_ID": "1999-025ENG", "EPOCH": "2025-12-06T02:20:17.868192", "MEAN_MOTION": 14.23414222, "ECCENTRICITY": 0.00637779, "INCLINATION": 99.0816, "RA_OF_ASC_NODE": 92.8647, "ARG_OF_PERICENTER": 203.9665, "MEAN_ANOMALY": 155.854, "EPHEMERIS_TYPE": 0, "CLASSIFICATION_TYPE": "U", "NORAD_CAT_ID": 37907, "ELEMENT_SET_NO": 999, "REV_AT_EPOCH": 83178, "BSTAR": 0.0046814324, "MEAN_MOTION_DOT": 0.00010821, "MEAN_MOTION_DDOT": 0}, "tle": {"line1": "1 37907U 99025ENG 25340.09742903  .00010821  00000+0  46814-2 0  9995", "line2": "2 37907  99.0816  92.8647 0063777 203.9665 155.8540 14.23414222831788"}}, "geometry": {"type": "Point", "coordinates": [-83.8598605719548, -3.323937432364874]}}, {"type": "Feature", "properties": {"norad_id": 37908, "name": "FENGYUN 1C DEB", "group": "fengyun-1c-debris", "lat": -1.357366515426951, "lon": -164.71890954999432, "alt_km": 721.4630901899145, "timestamp": "2025-12-09T18:55:17.521462+00:00", "meta": {"OBJECT_NAME": "FENGYUN 1C DEB", "OBJECT_ID": "1999-025ENH", "EPOCH": "2025-12-06T19:52:32.356992", "MEAN_MOTION": 14.36573191, "ECCENTRICITY": 0.00744593, "INCLINATION": 99.1512, "RA_OF_ASC_NODE": 12.3562, "ARG_OF_PERICENTER": 174.8209, "MEAN_ANOMALY": 185.3763, "EPHEMERIS_TYPE": 0, "CLASSIFICATION_TYPE": "U", "NORAD_CAT_ID": 37908, "ELEMENT_SET_NO": 999, "REV_AT_EPOCH": 63976, "BSTAR": 0.0009644739, "MEAN_MOTION_DOT": 2.877e-05, "MEAN_MOTION_DDOT": 0}, "tle": {"line1": "1 37908U 99025ENH 25340.82815228  .00002877  00000+0  96447-3 0  9998", "line2": "2 37908  99.1512  12.3562 0074459 174.8209 185.3763 14.36573191639769"}}, "geometry": {"type": "Point", "coordinates": [-164.71890954999432, -1.357366515426951]}}]}